O3B MPOWER F1           
1 54755U 22174A   23353.73609229 -.00000013  00000+0  00000+0 0  9999
2 54755   0.0560  16.0688 0005947 265.6783 249.9022  5.00118329 19816
